{"type":"FeatureCollection","features":[{"type":"Feature","properties":{"code":"0543","name":"Ithiru","sourceName":"Ithiru","constituency":"Kandara","constituencyCode":"109","county":"Murang'a","countyCode":"021","level":"ward","source":"geoBoundaries gbOpen KEN ADM3 (IEBC-derived)","license":"geoBoundaries gbOpen (CC BY 4.0 citation requested)","classification":"official","approximate":false},"geometry":{"type":"Polygon","coordinates":[[[36.97171,-0.85169],[36.96769,-0.85616],[36.97159,-0.86167],[36.96649,-0.86119],[36.96068,-0.86389],[36.94635,-0.87486],[36.94557,-0.87594],[36.94749,-0.87984],[36.94551,-0.88445],[36.95304,-0.88669],[36.9591,-0.89052],[36.96191,-0.89328],[36.96275,-0.89652],[36.96653,-0.89832],[36.96665,-0.90072],[36.9856,-0.90425],[36.99255,-0.91055],[36.99783,-0.90929],[37.00052,-0.90204],[37.00676,-0.90455],[37.01551,-0.89442],[37.02235,-0.89532],[37.02876,-0.89844],[37.03092,-0.90126],[37.03392,-0.90132],[37.0353,-0.89928],[37.03182,-0.89712],[37.03116,-0.88921],[37.02007,-0.87739],[37.00964,-0.86289],[37.00442,-0.85947],[36.99777,-0.85767],[36.99234,-0.85281],[36.9888,-0.84904],[36.98473,-0.8544],[36.98233,-0.85227],[36.97861,-0.85227],[36.97591,-0.84913],[36.97171,-0.85169]]]}},{"type":"Feature","properties":{"code":"0528","name":"Kahumbu","sourceName":"Kahumbu","constituency":"Kigumo","constituencyCode":"107","county":"Murang'a","countyCode":"021","level":"ward","source":"geoBoundaries gbOpen KEN ADM3 (IEBC-derived)","license":"geoBoundaries gbOpen (CC BY 4.0 citation requested)","classification":"official","approximate":false},"geometry":{"type":"Polygon","coordinates":[[[37.01932,-0.84409],[37.02535,-0.84814],[37.0308,-0.84934],[37.03722,-0.85665],[37.04399,-0.85959],[37.05856,-0.85899],[37.06875,-0.86468],[37.07055,-0.86786],[37.08296,-0.87775],[37.09123,-0.87913],[37.09345,-0.87805],[37.10287,-0.87823],[37.11755,-0.88645],[37.12409,-0.88765],[37.13944,-0.8756],[37.14028,-0.87338],[37.13905,-0.86424],[37.12364,-0.86214],[37.1189,-0.86352],[37.11578,-0.86304],[37.11195,-0.86016],[37.10685,-0.8613],[37.10266,-0.86034],[37.10002,-0.85842],[37.09882,-0.855],[37.09162,-0.85284],[37.0903,-0.84541],[37.08395,-0.84625],[37.0767,-0.84307],[37.06938,-0.84277],[37.06776,-0.84037],[37.06261,-0.83774],[37.05283,-0.83666],[37.04276,-0.83756],[37.03287,-0.83126],[37.0234,-0.83618],[37.01932,-0.84409]]]}},{"type":"Feature","properties":{"code":"0535","name":"Kambiti","sourceName":"Kambiti","constituency":"Maragwa","constituencyCode":"108","county":"Murang'a","countyCode":"021","level":"ward","source":"geoBoundaries gbOpen KEN ADM3 (IEBC-derived)","license":"geoBoundaries gbOpen (CC BY 4.0 citation requested)","classification":"official","approximate":false},"geometry":{"type":"Polygon","coordinates":[[[37.16567,-0.74932],[37.16465,-0.75061],[37.16651,-0.76182],[37.16369,-0.76068],[37.15721,-0.77033],[37.16369,-0.77711],[37.16489,-0.78029],[37.16465,-0.80217],[37.16627,-0.80541],[37.16986,-0.79923],[37.16818,-0.79821],[37.16776,-0.79485],[37.171,-0.79006],[37.16998,-0.78694],[37.17214,-0.77831],[37.18089,-0.7834],[37.19348,-0.7936],[37.19594,-0.79863],[37.19618,-0.80672],[37.20122,-0.81146],[37.20601,-0.8114],[37.2047,-0.81506],[37.20919,-0.82267],[37.20697,-0.82681],[37.20847,-0.83083],[37.20619,-0.83838],[37.20062,-0.84408],[37.20476,-0.8581],[37.20302,-0.86278],[37.20619,-0.8701],[37.20781,-0.87117],[37.21351,-0.87052],[37.21609,-0.86674],[37.22256,-0.86818],[37.22172,-0.88095],[37.22436,-0.88586],[37.22796,-0.88904],[37.23173,-0.88185],[37.2517,-0.86344],[37.24283,-0.8623],[37.23803,-0.85769],[37.2261,-0.85331],[37.23317,-0.84012],[37.25775,-0.83988],[37.26315,-0.80613],[37.26201,-0.79527],[37.26429,-0.78955],[37.25254,-0.78415],[37.23803,-0.78008],[37.23263,-0.77672],[37.22796,-0.7778],[37.22076,-0.77216],[37.221,-0.77024],[37.2186,-0.76713],[37.21621,-0.76844],[37.21213,-0.76737],[37.20637,-0.77024],[37.20242,-0.76557],[37.19774,-0.76509],[37.19558,-0.76641],[37.19247,-0.76029],[37.19486,-0.75729],[37.18923,-0.75058],[37.17916,-0.75238],[37.17412,-0.75106],[37.16944,-0.74746],[37.16567,-0.74932]]]}},{"type":"Feature","properties":{"code":"0530","name":"Kigumo","sourceName":"Kigumo","constituency":"Kigumo","constituencyCode":"107","county":"Murang'a","countyCode":"021","level":"ward","source":"geoBoundaries gbOpen KEN ADM3 (IEBC-derived)","license":"geoBoundaries gbOpen (CC BY 4.0 citation requested)","classification":"official","approximate":false},"geometry":{"type":"Polygon","coordinates":[[[37.0234,-0.83618],[37.0252,-0.82838],[37.02921,-0.82059],[37.02208,-0.81597],[37.01326,-0.81453],[37.01554,-0.80379],[37.01548,-0.79839],[37.01662,-0.79701],[37.01,-0.78829],[36.99861,-0.78835],[36.9943,-0.78943],[36.9919,-0.79219],[36.98812,-0.79369],[36.98111,-0.79195],[36.97703,-0.79452],[36.97487,-0.79105],[36.97002,-0.79045],[36.96846,-0.79165],[36.9615,-0.78841],[36.96078,-0.78589],[36.95338,-0.78421],[36.95182,-0.78601],[36.94738,-0.80556],[36.96524,-0.81747],[36.97615,-0.82832],[36.98233,-0.82742],[36.9936,-0.83534],[37.00445,-0.83606],[37.01243,-0.84307],[37.01932,-0.84409],[37.0234,-0.83618]]]}},{"type":"Feature","properties":{"code":"0549","name":"Gatanga","sourceName":"Gatanga","constituency":"Gatanga","constituencyCode":"110","county":"Murang'a","countyCode":"021","level":"ward","source":"geoBoundaries gbOpen KEN ADM3 (IEBC-derived)","license":"geoBoundaries gbOpen (CC BY 4.0 citation requested)","classification":"official","approximate":false},"geometry":{"type":"Polygon","coordinates":[[[36.88593,-0.89564],[36.89006,-0.89748],[36.89084,-0.8997],[36.88946,-0.90401],[36.89474,-0.91181],[36.89827,-0.91127],[36.90163,-0.91313],[36.90367,-0.91181],[36.90829,-0.91451],[36.90871,-0.91744],[36.91278,-0.92242],[36.91368,-0.92728],[36.91632,-0.93015],[36.91752,-0.93123],[36.91944,-0.93015],[36.92513,-0.93645],[36.92927,-0.93537],[36.93149,-0.93951],[36.94,-0.94538],[36.94288,-0.94586],[36.94738,-0.9509],[36.94642,-0.94154],[36.94798,-0.93795],[36.95151,-0.94232],[36.95595,-0.944],[36.96165,-0.95006],[36.96464,-0.94376],[36.9686,-0.94478],[36.97442,-0.94952],[36.97633,-0.95671],[36.97807,-0.95222],[36.98856,-0.94784],[36.98329,-0.94172],[36.97879,-0.93945],[36.97358,-0.93999],[36.97124,-0.93837],[36.96974,-0.93369],[36.96176,-0.93141],[36.96105,-0.92853],[36.95871,-0.92644],[36.95577,-0.92614],[36.95103,-0.92074],[36.94654,-0.91319],[36.93814,-0.90761],[36.93077,-0.89916],[36.92813,-0.89736],[36.92333,-0.89682],[36.92298,-0.89486],[36.92148,-0.89528],[36.92088,-0.88928],[36.91747,-0.8846],[36.90937,-0.88113],[36.90668,-0.87723],[36.90212,-0.87723],[36.89858,-0.87315],[36.88911,-0.86722],[36.88563,-0.86788],[36.88557,-0.88215],[36.88251,-0.88077],[36.88102,-0.87681],[36.87868,-0.88149],[36.8794,-0.88802],[36.88257,-0.88964],[36.88593,-0.89564]]]}},{"type":"Feature","properties":{"code":"0518","name":"Rwathia","sourceName":"Rwathia","constituency":"Kangema","constituencyCode":"104","county":"Murang'a","countyCode":"021","level":"ward","source":"geoBoundaries gbOpen KEN ADM3 (IEBC-derived)","license":"geoBoundaries gbOpen (CC BY 4.0 citation requested)","classification":"official","approximate":false},"geometry":{"type":"Polygon","coordinates":[[[36.80982,-0.67768],[36.82331,-0.67597],[36.82847,-0.67824],[36.8365,-0.67513],[36.8395,-0.68136],[36.84969,-0.68136],[36.85233,-0.67944],[36.85904,-0.67801],[36.86384,-0.67992],[36.87247,-0.67932],[36.87403,-0.68064],[36.8817,-0.68124],[36.8889,-0.68028],[36.89154,-0.67848],[36.89358,-0.67944],[36.89897,-0.67729],[36.91,-0.67741],[36.91144,-0.67848],[36.92259,-0.67093],[36.92499,-0.67213],[36.92919,-0.67069],[36.93314,-0.67261],[36.93422,-0.67333],[36.9383,-0.66961],[36.95149,-0.66553],[36.95257,-0.66386],[36.95065,-0.66158],[36.95305,-0.65882],[36.95269,-0.65666],[36.94885,-0.65115],[36.94681,-0.65187],[36.9407,-0.64959],[36.93015,-0.65043],[36.92571,-0.64971],[36.92391,-0.64779],[36.91816,-0.64755],[36.91696,-0.64887],[36.90509,-0.64455],[36.90149,-0.64515],[36.89358,-0.64059],[36.89046,-0.63616],[36.88308,-0.63451],[36.88224,-0.63571],[36.87577,-0.63559],[36.87373,-0.63907],[36.87001,-0.64062],[36.86618,-0.63931],[36.86582,-0.64146],[36.86162,-0.64602],[36.85263,-0.64674],[36.84855,-0.64518],[36.84747,-0.64626],[36.8422,-0.64494],[36.84088,-0.64578],[36.83932,-0.64458],[36.83164,-0.64782],[36.83452,-0.65297],[36.83452,-0.65597],[36.83776,-0.65849],[36.81809,-0.65261],[36.8133,-0.66377],[36.80982,-0.67768]]]}},{"type":"Feature","properties":{"code":"0539","name":"Ng'araria","sourceName":"Ng'Araria","constituency":"Kandara","constituencyCode":"109","county":"Murang'a","countyCode":"021","level":"ward","source":"geoBoundaries gbOpen KEN ADM3 (IEBC-derived)","license":"geoBoundaries gbOpen (CC BY 4.0 citation requested)","classification":"official","approximate":false},"geometry":{"type":"Polygon","coordinates":[[[36.99255,-0.91055],[36.99879,-0.92296],[37.0091,-0.93585],[37.01347,-0.944],[37.02523,-0.95443],[37.02731,-0.95883],[37.03552,-0.96506],[37.06414,-0.9479],[37.06024,-0.9446],[37.05958,-0.9419],[37.04975,-0.93771],[37.04357,-0.93177],[37.02906,-0.92488],[37.02241,-0.91726],[37.00922,-0.90923],[37.00676,-0.90455],[37.00052,-0.90204],[36.99783,-0.90929],[36.99255,-0.91055]]]}},{"type":"Feature","properties":{"code":"0544","name":"Ruchu","sourceName":"Ruchu","constituency":"Kandara","constituencyCode":"109","county":"Murang'a","countyCode":"021","level":"ward","source":"geoBoundaries gbOpen KEN ADM3 (IEBC-derived)","license":"geoBoundaries gbOpen (CC BY 4.0 citation requested)","classification":"official","approximate":false},"geometry":{"type":"Polygon","coordinates":[[[36.97171,-0.85169],[36.96164,-0.83904],[36.96245,-0.83409],[36.96029,-0.82852],[36.96071,-0.8263],[36.96257,-0.82534],[36.95975,-0.82024],[36.95561,-0.81716],[36.95131,-0.81083],[36.9459,-0.80762],[36.94594,-0.8064],[36.94067,-0.80424],[36.93491,-0.80424],[36.92748,-0.80831],[36.91993,-0.80616],[36.91789,-0.80699],[36.91369,-0.80508],[36.91129,-0.80604],[36.90014,-0.8016],[36.89774,-0.79668],[36.88899,-0.79357],[36.88191,-0.79776],[36.87868,-0.79632],[36.8752,-0.7986],[36.87388,-0.79668],[36.86944,-0.798],[36.86872,-0.80807],[36.86513,-0.80759],[36.86369,-0.80376],[36.85817,-0.8016],[36.85793,-0.80436],[36.85482,-0.80556],[36.86249,-0.82138],[36.86471,-0.82489],[36.87046,-0.82513],[36.87172,-0.82705],[36.87664,-0.82339],[36.88305,-0.82417],[36.88845,-0.83412],[36.89181,-0.83658],[36.89061,-0.83778],[36.89157,-0.8388],[36.89966,-0.83886],[36.9041,-0.83574],[36.90727,-0.83844],[36.90745,-0.84162],[36.91351,-0.84114],[36.91609,-0.84557],[36.91681,-0.85025],[36.92916,-0.86668],[36.92988,-0.87345],[36.93114,-0.87645],[36.93377,-0.87693],[36.93395,-0.87927],[36.93945,-0.88146],[36.94365,-0.88529],[36.94551,-0.88445],[36.94749,-0.87984],[36.94557,-0.87594],[36.94635,-0.87486],[36.96068,-0.86389],[36.96649,-0.86119],[36.97159,-0.86167],[36.96769,-0.85616],[36.97171,-0.85169]]]}},{"type":"Feature","properties":{"code":"0525","name":"Township","sourceName":"Township","constituency":"Kiharu","constituencyCode":"106","county":"Murang'a","countyCode":"021","level":"ward","source":"geoBoundaries gbOpen KEN ADM3 (IEBC-derived)","license":"geoBoundaries gbOpen (CC BY 4.0 citation requested)","classification":"official","approximate":false},"geometry":{"type":"Polygon","coordinates":[[[37.16944,-0.74746],[37.17292,-0.74542],[37.177,-0.73943],[37.1746,-0.73559],[37.17064,-0.73379],[37.1728,-0.72912],[37.17664,-0.72588],[37.18287,-0.72384],[37.1945,-0.72348],[37.1951,-0.72108],[37.19342,-0.71928],[37.18635,-0.71772],[37.18311,-0.71904],[37.17844,-0.71844],[37.17678,-0.71525],[37.16857,-0.71645],[37.16425,-0.71399],[37.16329,-0.71027],[37.16047,-0.70884],[37.15777,-0.71117],[37.14725,-0.70899],[37.14324,-0.71001],[37.13928,-0.71417],[37.1373,-0.71357],[37.13637,-0.71969],[37.13146,-0.71552],[37.11513,-0.72066],[37.10949,-0.7194],[37.09618,-0.72474],[37.0963,-0.73187],[37.09792,-0.73307],[37.10505,-0.73421],[37.10901,-0.73313],[37.11177,-0.73439],[37.11638,-0.73313],[37.1201,-0.72906],[37.13989,-0.72678],[37.14456,-0.72798],[37.1499,-0.72714],[37.15068,-0.72906],[37.14774,-0.73301],[37.14858,-0.73535],[37.15296,-0.73835],[37.16027,-0.74021],[37.16471,-0.74884],[37.16567,-0.74932],[37.16944,-0.74746]]]}},{"type":"Feature","properties":{"code":"0548","name":"Kihumbu-ini","sourceName":"Kihumbu-Ini","constituency":"Gatanga","constituencyCode":"110","county":"Murang'a","countyCode":"021","level":"ward","source":"geoBoundaries gbOpen KEN ADM3 (IEBC-derived)","license":"geoBoundaries gbOpen (CC BY 4.0 citation requested)","classification":"official","approximate":false},"geometry":{"type":"Polygon","coordinates":[[[36.94551,-0.88445],[36.94365,-0.88529],[36.93945,-0.88146],[36.93395,-0.87927],[36.92922,-0.88299],[36.92298,-0.89486],[36.92333,-0.89682],[36.92813,-0.89736],[36.93077,-0.89916],[36.93814,-0.90761],[36.94654,-0.91319],[36.95103,-0.92074],[36.95577,-0.92614],[36.95871,-0.92644],[36.96105,-0.92853],[36.96176,-0.93141],[36.96974,-0.93369],[36.97124,-0.93837],[36.97358,-0.93999],[36.97879,-0.93945],[36.98329,-0.94172],[36.98856,-0.94784],[36.99789,-0.95132],[36.99975,-0.95803],[37.00922,-0.96409],[37.01593,-0.97068],[37.01755,-0.97026],[37.01941,-0.96277],[37.02487,-0.95707],[37.02523,-0.95443],[37.01347,-0.944],[37.0091,-0.93585],[36.99879,-0.92296],[36.99255,-0.91055],[36.9856,-0.90425],[36.96665,-0.90072],[36.96653,-0.89832],[36.96275,-0.89652],[36.96191,-0.89328],[36.9591,-0.89052],[36.95304,-0.88669],[36.94551,-0.88445]]]}},{"type":"Feature","properties":{"code":"0520","name":"Kiru","sourceName":"Kiru","constituency":"Mathioya","constituencyCode":"105","county":"Murang'a","countyCode":"021","level":"ward","source":"geoBoundaries gbOpen KEN ADM3 (IEBC-derived)","license":"geoBoundaries gbOpen (CC BY 4.0 citation requested)","classification":"official","approximate":false},"geometry":{"type":"Polygon","coordinates":[[[36.88308,-0.63451],[36.88488,-0.62432],[36.89352,-0.62971],[36.89891,-0.63019],[36.90982,-0.63619],[36.92037,-0.63235],[36.92217,-0.63283],[36.92949,-0.62863],[36.9362,-0.62851],[36.93764,-0.62731],[36.93992,-0.62911],[36.94076,-0.62779],[36.94292,-0.62875],[36.944,-0.62767],[36.95431,-0.63043],[36.95898,-0.62719],[36.96174,-0.63031],[36.96342,-0.62815],[36.9693,-0.62791],[36.97517,-0.63043],[36.98105,-0.62947],[36.9844,-0.63211],[36.98644,-0.63175],[36.99064,-0.63415],[37.00239,-0.64278],[37.00779,-0.64254],[37.00994,-0.64374],[37.0127,-0.64134],[37.01726,-0.6405],[37.01822,-0.63871],[37.01618,-0.63691],[37.01678,-0.63199],[37.01462,-0.63091],[37.01584,-0.62781],[37.0145,-0.62767],[37.01318,-0.62324],[37.01222,-0.62444],[37.00539,-0.62132],[36.99939,-0.6212],[36.99424,-0.61293],[36.98009,-0.61556],[36.97313,-0.61412],[36.97205,-0.61173],[36.9585,-0.60801],[36.95515,-0.60429],[36.96234,-0.59866],[36.96126,-0.59266],[36.96318,-0.58931],[36.93722,-0.59938],[36.91419,-0.61024],[36.89398,-0.61054],[36.88091,-0.60923],[36.86241,-0.60702],[36.81364,-0.58208],[36.8105,-0.57169],[36.79326,-0.57097],[36.77757,-0.56715],[36.75062,-0.57097],[36.73313,-0.56695],[36.72408,-0.57278],[36.70965,-0.58662],[36.70973,-0.61522],[36.70898,-0.61888],[36.70733,-0.62696],[36.70647,-0.64606],[36.71003,-0.66332],[36.71605,-0.67096],[36.72277,-0.67504],[36.72972,-0.67839],[36.74171,-0.67959],[36.75442,-0.69902],[36.76354,-0.70094],[36.77049,-0.70957],[36.77313,-0.71077],[36.77745,-0.71892],[36.7832,-0.72084],[36.79687,-0.73187],[36.80454,-0.73499],[36.80574,-0.73835],[36.81174,-0.72636],[36.81624,-0.71272],[36.8163,-0.70957],[36.8139,-0.70453],[36.81749,-0.69926],[36.82109,-0.6971],[36.81965,-0.6911],[36.82229,-0.68871],[36.82277,-0.68535],[36.81893,-0.68031],[36.80982,-0.67768],[36.8133,-0.66377],[36.81809,-0.65261],[36.83776,-0.65849],[36.83452,-0.65597],[36.83452,-0.65297],[36.83164,-0.64782],[36.83932,-0.64458],[36.84088,-0.64578],[36.8422,-0.64494],[36.84747,-0.64626],[36.84855,-0.64518],[36.85263,-0.64674],[36.86162,-0.64602],[36.86582,-0.64146],[36.86618,-0.63931],[36.87001,-0.64062],[36.87373,-0.63907],[36.87577,-0.63559],[36.88224,-0.63571],[36.88308,-0.63451]]]}},{"type":"Feature","properties":{"code":"0516","name":"Kanyenyaini","sourceName":"Kanyenyaini","constituency":"Kangema","constituencyCode":"104","county":"Murang'a","countyCode":"021","level":"ward","source":"geoBoundaries gbOpen KEN ADM3 (IEBC-derived)","license":"geoBoundaries gbOpen (CC BY 4.0 citation requested)","classification":"official","approximate":false},"geometry":{"type":"Polygon","coordinates":[[[36.80982,-0.67768],[36.81893,-0.68031],[36.82277,-0.68535],[36.82229,-0.68871],[36.81965,-0.6911],[36.82109,-0.6971],[36.81749,-0.69926],[36.8139,-0.70453],[36.8163,-0.70957],[36.81624,-0.71272],[36.82097,-0.7135],[36.82289,-0.7153],[36.83038,-0.71572],[36.83374,-0.71949],[36.83812,-0.72111],[36.83944,-0.72351],[36.84262,-0.72345],[36.84633,-0.72759],[36.85988,-0.73004],[36.86624,-0.7343],[36.87247,-0.73334],[36.8684,-0.72255],[36.86911,-0.72051],[36.86684,-0.71662],[36.86726,-0.71176],[36.86989,-0.70936],[36.87187,-0.7042],[36.87451,-0.70343],[36.87907,-0.70462],[36.88848,-0.70139],[36.89771,-0.70768],[36.90455,-0.7066],[36.90653,-0.70247],[36.90778,-0.70241],[36.91174,-0.70576],[36.91606,-0.7042],[36.91738,-0.7072],[36.92205,-0.71086],[36.92391,-0.71128],[36.92571,-0.70984],[36.93135,-0.71116],[36.93428,-0.7141],[36.94729,-0.71446],[36.94975,-0.71572],[36.95581,-0.72501],[36.96336,-0.72729],[36.96336,-0.71398],[36.96144,-0.71008],[36.9627,-0.70606],[36.95904,-0.70474],[36.95653,-0.7057],[36.95323,-0.70175],[36.95413,-0.69995],[36.95161,-0.69869],[36.94891,-0.70043],[36.94268,-0.69887],[36.9392,-0.69281],[36.94106,-0.6843],[36.93464,-0.68124],[36.93578,-0.67974],[36.93314,-0.67261],[36.92919,-0.67069],[36.92499,-0.67213],[36.92259,-0.67093],[36.91144,-0.67848],[36.91,-0.67741],[36.89897,-0.67729],[36.89358,-0.67944],[36.89154,-0.67848],[36.8889,-0.68028],[36.8817,-0.68124],[36.87403,-0.68064],[36.87247,-0.67932],[36.86384,-0.67992],[36.85904,-0.67801],[36.85233,-0.67944],[36.84969,-0.68136],[36.8395,-0.68136],[36.8365,-0.67513],[36.82847,-0.67824],[36.82331,-0.67597],[36.80982,-0.67768]]]}},{"type":"Feature","properties":{"code":"0532","name":"Kinyona","sourceName":"Kinyona","constituency":"Kigumo","constituencyCode":"107","county":"Murang'a","countyCode":"021","level":"ward","source":"geoBoundaries gbOpen KEN ADM3 (IEBC-derived)","license":"geoBoundaries gbOpen (CC BY 4.0 citation requested)","classification":"official","approximate":false},"geometry":{"type":"Polygon","coordinates":[[[37.01,-0.78829],[37.01048,-0.78445],[37.01912,-0.78157],[37.02002,-0.77948],[37.00923,-0.77246],[37.00323,-0.7754],[36.99723,-0.77246],[36.99016,-0.77132],[36.98057,-0.7733],[36.97349,-0.77198],[36.97133,-0.76856],[36.96702,-0.76773],[36.96105,-0.76898],[36.95509,-0.76701],[36.95413,-0.76794],[36.94711,-0.76119],[36.94079,-0.7584],[36.92163,-0.75738],[36.9199,-0.75846],[36.91876,-0.75738],[36.91744,-0.75846],[36.91174,-0.75421],[36.90419,-0.75552],[36.89519,-0.75337],[36.891,-0.74935],[36.88398,-0.74677],[36.88338,-0.74479],[36.87667,-0.73946],[36.87631,-0.73742],[36.87379,-0.73634],[36.87247,-0.73334],[36.86624,-0.7343],[36.85988,-0.73004],[36.84633,-0.72759],[36.84262,-0.72345],[36.83944,-0.72351],[36.83812,-0.72111],[36.83374,-0.71949],[36.83038,-0.71572],[36.82289,-0.7153],[36.82097,-0.7135],[36.81624,-0.71272],[36.81174,-0.72636],[36.80574,-0.73835],[36.80374,-0.74632],[36.80613,-0.74992],[36.81069,-0.7504],[36.81477,-0.75627],[36.8192,-0.75759],[36.82316,-0.76239],[36.8282,-0.76383],[36.83275,-0.76743],[36.83875,-0.76731],[36.84414,-0.7691],[36.84906,-0.76826],[36.85086,-0.76994],[36.85805,-0.7709],[36.86177,-0.77462],[36.86369,-0.77378],[36.86465,-0.77582],[36.86992,-0.77234],[36.8746,-0.7733],[36.88048,-0.77954],[36.88287,-0.7787],[36.89199,-0.78301],[36.89438,-0.78265],[36.8957,-0.78589],[36.89966,-0.78181],[36.91033,-0.78169],[36.91417,-0.77726],[36.92004,-0.7793],[36.92568,-0.78325],[36.92796,-0.78193],[36.92892,-0.78301],[36.93959,-0.78157],[36.9499,-0.78385],[36.95194,-0.78289],[36.95338,-0.78421],[36.96078,-0.78589],[36.9615,-0.78841],[36.96846,-0.79165],[36.97002,-0.79045],[36.97487,-0.79105],[36.97703,-0.79452],[36.98111,-0.79195],[36.98812,-0.79369],[36.9919,-0.79219],[36.9943,-0.78943],[36.99861,-0.78835],[37.01,-0.78829]]]}},{"type":"Feature","properties":{"code":"0546","name":"Kakuzi/Mitubiri","sourceName":"Kakuzi/Mitubiri","constituency":"Gatanga","constituencyCode":"110","county":"Murang'a","countyCode":"021","level":"ward","source":"geoBoundaries gbOpen KEN ADM3 (IEBC-derived)","license":"geoBoundaries gbOpen (CC BY 4.0 citation requested)","classification":"official","approximate":false},"geometry":{"type":"Polygon","coordinates":[[[37.24539,-1.02379],[37.24899,-1.02091],[37.26445,-1.01689],[37.26829,-1.02355],[37.27626,-1.02948],[37.27854,-1.03512],[37.28286,-1.03793],[37.28478,-1.04219],[37.29275,-1.04981],[37.29383,-1.04915],[37.29785,-1.05268],[37.31026,-1.06551],[37.31404,-1.06282],[37.32381,-1.07636],[37.32884,-1.07613],[37.33394,-1.08044],[37.33778,-1.07798],[37.34755,-1.09051],[37.35193,-1.09177],[37.35804,-1.09033],[37.36152,-1.09321],[37.38532,-1.05862],[37.40217,-1.04645],[37.38646,-1.02355],[37.3581,-1.04087],[37.34983,-1.03548],[37.34743,-1.02469],[37.34731,-1.01665],[37.33736,-1.01617],[37.32153,-1.0284],[37.32321,-1.01989],[37.31661,-1.00634],[37.3093,-0.99831],[37.30942,-0.99495],[37.30738,-0.99171],[37.30942,-0.98104],[37.30642,-0.97684],[37.30762,-0.96857],[37.30618,-0.96437],[37.30198,-0.95958],[37.30103,-0.95514],[37.29875,-0.95334],[37.29719,-0.95514],[37.27968,-0.96113],[37.27728,-0.96149],[37.27632,-0.96018],[37.26505,-0.96797],[37.26397,-0.95718],[37.2581,-0.95934],[37.25582,-0.95826],[37.25246,-0.96857],[37.25007,-0.96677],[37.24395,-0.96797],[37.21829,-0.96665],[37.20846,-0.98643],[37.21853,-0.99759],[37.21841,-0.99914],[37.20474,-1.01006],[37.19203,-1.01209],[37.18616,-1.01024],[37.1783,-1.00154],[37.1593,-1.00022],[37.14994,-0.99405],[37.14539,-1.00082],[37.14521,-1.00592],[37.13903,-1.01108],[37.13723,-1.01024],[37.1346,-1.00322],[37.12842,-0.99525],[37.1271,-0.98823],[37.1235,-0.98494],[37.12147,-0.97972],[37.10654,-0.96575],[37.10239,-0.95779],[37.09333,-0.96942],[37.08969,-0.97187],[37.07698,-0.98817],[37.0786,-0.99639],[37.07764,-1.0043],[37.06715,-1.02115],[37.07278,-1.02469],[37.07698,-1.02948],[37.08387,-1.03038],[37.08945,-1.0335],[37.09323,-1.03254],[37.09778,-1.0356],[37.1009,-1.03308],[37.10738,-1.03458],[37.11031,-1.03829],[37.11565,-1.03955],[37.1229,-1.0525],[37.12566,-1.05082],[37.12602,-1.04903],[37.13004,-1.04867],[37.1319,-1.04675],[37.13645,-1.04939],[37.14623,-1.04813],[37.1539,-1.05262],[37.15516,-1.04909],[37.15666,-1.04855],[37.1578,-1.05052],[37.15948,-1.04777],[37.16349,-1.04789],[37.16883,-1.04429],[37.17428,-1.04279],[37.17602,-1.03572],[37.17428,-1.03428],[37.17524,-1.03296],[37.19137,-1.04159],[37.19737,-1.04009],[37.20348,-1.0341],[37.21295,-1.03398],[37.21757,-1.02684],[37.22441,-1.02588],[37.22471,-1.02349],[37.22848,-1.02031],[37.22938,-1.01779],[37.23106,-1.01773],[37.23903,-1.02367],[37.24539,-1.02379]]]}},{"type":"Feature","properties":{"code":"0534","name":"Makuyu","sourceName":"Makuyu","constituency":"Maragwa","constituencyCode":"108","county":"Murang'a","countyCode":"021","level":"ward","source":"geoBoundaries gbOpen KEN ADM3 (IEBC-derived)","license":"geoBoundaries gbOpen (CC BY 4.0 citation requested)","classification":"official","approximate":false},"geometry":{"type":"Polygon","coordinates":[[[37.20062,-0.84408],[37.19585,-0.84574],[37.19142,-0.85245],[37.18806,-0.85179],[37.18584,-0.85365],[37.1814,-0.85257],[37.17919,-0.85383],[37.17835,-0.85665],[37.17973,-0.85905],[37.17571,-0.86924],[37.17572,-0.88385],[37.17746,-0.88901],[37.18232,-0.89405],[37.18292,-0.89926],[37.18663,-0.9031],[37.18759,-0.90838],[37.19779,-0.91449],[37.20318,-0.91245],[37.21853,-0.91569],[37.21721,-0.91857],[37.2096,-0.92294],[37.2063,-0.92954],[37.20606,-0.93535],[37.20708,-0.95364],[37.20942,-0.95472],[37.21829,-0.96665],[37.24395,-0.96797],[37.25007,-0.96677],[37.25246,-0.96857],[37.25582,-0.95826],[37.2581,-0.95934],[37.26397,-0.95718],[37.26505,-0.96797],[37.27632,-0.96018],[37.27728,-0.96149],[37.27968,-0.96113],[37.29719,-0.95514],[37.29875,-0.95334],[37.29641,-0.9516],[37.29287,-0.93907],[37.31338,-0.92372],[37.31823,-0.92193],[37.31607,-0.91869],[37.29995,-0.9073],[37.28364,-0.89944],[37.26529,-0.8805],[37.2517,-0.86344],[37.23173,-0.88185],[37.22796,-0.88904],[37.22436,-0.88586],[37.22172,-0.88095],[37.22256,-0.86818],[37.21609,-0.86674],[37.21351,-0.87052],[37.20781,-0.87117],[37.20619,-0.8701],[37.20302,-0.86278],[37.20476,-0.8581],[37.20062,-0.84408]]]}},{"type":"Feature","properties":{"code":"0524","name":"Mbiri","sourceName":"Mbiri","constituency":"Kiharu","constituencyCode":"106","county":"Murang'a","countyCode":"021","level":"ward","source":"geoBoundaries gbOpen KEN ADM3 (IEBC-derived)","license":"geoBoundaries gbOpen (CC BY 4.0 citation requested)","classification":"official","approximate":false},"geometry":{"type":"MultiPolygon","coordinates":[[[[37.13146,-0.71552],[37.12822,-0.71198],[37.12231,-0.70911],[37.11725,-0.70776],[37.1152,-0.71004],[37.10273,-0.70818],[37.09931,-0.71117],[37.09739,-0.7089],[37.09278,-0.70842],[37.09044,-0.71087],[37.08771,-0.71366],[37.08651,-0.72044],[37.08927,-0.72487],[37.08897,-0.73561],[37.08579,-0.73842],[37.08082,-0.73974],[37.08113,-0.74452],[37.08281,-0.74542],[37.08323,-0.75334],[37.0912,-0.7507],[37.09882,-0.76263],[37.09684,-0.76677],[37.10206,-0.76761],[37.11057,-0.77222],[37.12292,-0.76731],[37.13107,-0.7685],[37.13479,-0.76731],[37.14378,-0.76371],[37.14726,-0.75999],[37.14786,-0.75675],[37.14966,-0.75615],[37.15086,-0.75771],[37.1535,-0.75795],[37.15206,-0.7522],[37.15296,-0.74824],[37.15781,-0.74992],[37.16471,-0.74884],[37.16027,-0.74021],[37.15296,-0.73835],[37.14858,-0.73535],[37.14774,-0.73301],[37.15068,-0.72906],[37.1499,-0.72714],[37.14456,-0.72798],[37.13989,-0.72678],[37.1201,-0.72906],[37.11638,-0.73313],[37.11177,-0.73439],[37.10901,-0.73313],[37.10505,-0.73421],[37.09792,-0.73307],[37.0963,-0.73187],[37.09618,-0.72474],[37.10949,-0.7194],[37.11513,-0.72066],[37.13146,-0.71552]]],[[[37.26429,-0.78955],[37.26887,-0.78845],[37.2645,-0.78671],[37.26222,-0.78383],[37.26138,-0.77052],[37.25898,-0.76681],[37.25766,-0.76069],[37.25478,-0.75697],[37.25646,-0.75374],[37.25922,-0.75206],[37.26713,-0.75541],[37.26917,-0.75494],[37.26893,-0.75338],[37.26222,-0.74726],[37.26474,-0.74426],[37.25538,-0.73347],[37.25694,-0.73011],[37.25658,-0.72688],[37.25538,-0.72544],[37.24999,-0.72508],[37.24927,-0.72088],[37.25023,-0.72004],[37.2537,-0.72268],[37.25442,-0.72058],[37.24729,-0.71285],[37.24795,-0.70895],[37.24651,-0.70757],[37.24417,-0.70913],[37.24315,-0.70811],[37.24141,-0.70403],[37.24279,-0.69738],[37.24075,-0.6951],[37.24339,-0.69228],[37.2389,-0.68821],[37.23776,-0.68164],[37.2362,-0.67984],[37.23572,-0.67061],[37.2344,-0.66929],[37.22696,-0.67349],[37.21557,-0.6892],[37.21258,-0.691],[37.21066,-0.685],[37.2031,-0.67745],[37.20262,-0.67367],[37.19878,-0.67304],[37.19579,-0.67008],[37.19219,-0.67167],[37.18433,-0.69876],[37.18032,-0.70626],[37.18272,-0.71303],[37.1775,-0.71327],[37.17678,-0.71525],[37.17844,-0.71844],[37.18311,-0.71904],[37.18635,-0.71772],[37.19342,-0.71928],[37.1951,-0.72108],[37.1945,-0.72348],[37.18287,-0.72384],[37.17664,-0.72588],[37.1728,-0.72912],[37.17064,-0.73379],[37.1746,-0.73559],[37.177,-0.73943],[37.17292,-0.74542],[37.16944,-0.74746],[37.17412,-0.75106],[37.17916,-0.75238],[37.18923,-0.75058],[37.19486,-0.75729],[37.19247,-0.76029],[37.19558,-0.76641],[37.19774,-0.76509],[37.20242,-0.76557],[37.20637,-0.77024],[37.21213,-0.76737],[37.21621,-0.76844],[37.2186,-0.76713],[37.221,-0.77024],[37.22076,-0.77216],[37.22796,-0.7778],[37.23263,-0.77672],[37.23803,-0.78008],[37.25254,-0.78415],[37.26429,-0.78955]]]]}},{"type":"Feature","properties":{"code":"0521","name":"Kamacharia","sourceName":"Kamacharia","constituency":"Mathioya","constituencyCode":"105","county":"Murang'a","countyCode":"021","level":"ward","source":"geoBoundaries gbOpen KEN ADM3 (IEBC-derived)","license":"geoBoundaries gbOpen (CC BY 4.0 citation requested)","classification":"official","approximate":false},"geometry":{"type":"Polygon","coordinates":[[[36.998,-0.58572],[36.98735,-0.57694],[36.97805,-0.58057],[36.96318,-0.58931],[36.96126,-0.59266],[36.96234,-0.59866],[36.95515,-0.60429],[36.9585,-0.60801],[36.97205,-0.61173],[36.97313,-0.61412],[36.98009,-0.61556],[36.99424,-0.61293],[36.99939,-0.6212],[37.00539,-0.62132],[37.01222,-0.62444],[37.01318,-0.62324],[37.0145,-0.62767],[37.01584,-0.62781],[37.01931,-0.62529],[37.02831,-0.62751],[37.03088,-0.62619],[37.03568,-0.62763],[37.03634,-0.62451],[37.0346,-0.62397],[37.03586,-0.62247],[37.04299,-0.62014],[37.04953,-0.62541],[37.05133,-0.62337],[37.05127,-0.62097],[37.0578,-0.61708],[37.05888,-0.61396],[37.06092,-0.61272],[37.05094,-0.59779],[37.01724,-0.58673],[36.998,-0.58572]]]}},{"type":"Feature","properties":{"code":"0542","name":"Gaichanjiru","sourceName":"Gaichanjiru","constituency":"Kandara","constituencyCode":"109","county":"Murang'a","countyCode":"021","level":"ward","source":"geoBoundaries gbOpen KEN ADM3 (IEBC-derived)","license":"geoBoundaries gbOpen (CC BY 4.0 citation requested)","classification":"official","approximate":false},"geometry":{"type":"Polygon","coordinates":[[[36.99234,-0.85281],[36.99684,-0.84742],[36.99999,-0.84733],[37.0025,-0.84916],[37.01036,-0.84871],[37.015,-0.85236],[37.0189,-0.85152],[37.02454,-0.85425],[37.02873,-0.85854],[37.03569,-0.86163],[37.04072,-0.86522],[37.04216,-0.86864],[37.04156,-0.87308],[37.03934,-0.87458],[37.03767,-0.87925],[37.04594,-0.88753],[37.05181,-0.89028],[37.06249,-0.90078],[37.07777,-0.90264],[37.08173,-0.90533],[37.08611,-0.90443],[37.08917,-0.90767],[37.10403,-0.91355],[37.10823,-0.91211],[37.11243,-0.91313],[37.11992,-0.91163],[37.12148,-0.90815],[37.11893,-0.89952],[37.11851,-0.8955],[37.12289,-0.8913],[37.12409,-0.88765],[37.11755,-0.88645],[37.10287,-0.87823],[37.09345,-0.87805],[37.09123,-0.87913],[37.08296,-0.87775],[37.07055,-0.86786],[37.06875,-0.86468],[37.05856,-0.85899],[37.04399,-0.85959],[37.03722,-0.85665],[37.0308,-0.84934],[37.02535,-0.84814],[37.01932,-0.84409],[37.01243,-0.84307],[37.00445,-0.83606],[36.9936,-0.83534],[36.98233,-0.82742],[36.97615,-0.82832],[36.96524,-0.81747],[36.94738,-0.80556],[36.94594,-0.8064],[36.9459,-0.80762],[36.95131,-0.81083],[36.95561,-0.81716],[36.95975,-0.82024],[36.96257,-0.82534],[36.96071,-0.8263],[36.96029,-0.82852],[36.96245,-0.83409],[36.96164,-0.83904],[36.97171,-0.85169],[36.97591,-0.84913],[36.97861,-0.85227],[36.98233,-0.85227],[36.98473,-0.8544],[36.9888,-0.84904],[36.99234,-0.85281]]]}},{"type":"Feature","properties":{"code":"0541","name":"Kagundu-ini","sourceName":"Kagundu-Ini","constituency":"Kandara","constituencyCode":"109","county":"Murang'a","countyCode":"021","level":"ward","source":"geoBoundaries gbOpen KEN ADM3 (IEBC-derived)","license":"geoBoundaries gbOpen (CC BY 4.0 citation requested)","classification":"official","approximate":false},"geometry":{"type":"Polygon","coordinates":[[[37.03116,-0.88921],[37.03695,-0.89115],[37.06,-0.91121],[37.07439,-0.91894],[37.08146,-0.92824],[37.08992,-0.94388],[37.10239,-0.95779],[37.11995,-0.94316],[37.12679,-0.91846],[37.12313,-0.91409],[37.12148,-0.90815],[37.11992,-0.91163],[37.11243,-0.91313],[37.10823,-0.91211],[37.10403,-0.91355],[37.08917,-0.90767],[37.08611,-0.90443],[37.08173,-0.90533],[37.07777,-0.90264],[37.06249,-0.90078],[37.05181,-0.89028],[37.04594,-0.88753],[37.03767,-0.87925],[37.03934,-0.87458],[37.04156,-0.87308],[37.04216,-0.86864],[37.04072,-0.86522],[37.03569,-0.86163],[37.02873,-0.85854],[37.02454,-0.85425],[37.0189,-0.85152],[37.015,-0.85236],[37.01036,-0.84871],[37.0025,-0.84916],[36.99999,-0.84733],[36.99684,-0.84742],[36.99234,-0.85281],[36.99777,-0.85767],[37.00442,-0.85947],[37.00964,-0.86289],[37.02007,-0.87739],[37.03116,-0.88921]]]}},{"type":"Feature","properties":{"code":"0550","name":"Kariara","sourceName":"Kariara","constituency":"Gatanga","constituencyCode":"110","county":"Murang'a","countyCode":"021","level":"ward","source":"geoBoundaries gbOpen KEN ADM3 (IEBC-derived)","license":"geoBoundaries gbOpen (CC BY 4.0 citation requested)","classification":"official","approximate":false},"geometry":{"type":"Polygon","coordinates":[[[36.92298,-0.89486],[36.92922,-0.88299],[36.93395,-0.87927],[36.93377,-0.87693],[36.93114,-0.87645],[36.92988,-0.87345],[36.92916,-0.86668],[36.91681,-0.85025],[36.91609,-0.84557],[36.91351,-0.84114],[36.90745,-0.84162],[36.90727,-0.83844],[36.9041,-0.83574],[36.89966,-0.83886],[36.89157,-0.8388],[36.89061,-0.83778],[36.89181,-0.83658],[36.88845,-0.83412],[36.88305,-0.82417],[36.87664,-0.82339],[36.87172,-0.82705],[36.87046,-0.82513],[36.86471,-0.82489],[36.86249,-0.82138],[36.85673,-0.82174],[36.85206,-0.81994],[36.85086,-0.82126],[36.84918,-0.82006],[36.84438,-0.8233],[36.84067,-0.8203],[36.83923,-0.81695],[36.83791,-0.81791],[36.83515,-0.81563],[36.83383,-0.81683],[36.83083,-0.81347],[36.82952,-0.81443],[36.82196,-0.81335],[36.81884,-0.81191],[36.818,-0.80951],[36.81249,-0.80747],[36.80733,-0.7974],[36.80338,-0.79476],[36.80158,-0.79141],[36.79954,-0.79165],[36.79318,-0.78086],[36.79103,-0.77882],[36.78191,-0.77642],[36.7728,-0.77006],[36.76884,-0.76359],[36.75733,-0.75436],[36.74786,-0.74225],[36.74642,-0.72989],[36.74342,-0.72462],[36.74306,-0.71659],[36.7403,-0.71431],[36.74019,-0.71191],[36.73815,-0.71203],[36.73599,-0.70939],[36.72771,-0.70495],[36.71201,-0.70136],[36.71557,-0.71402],[36.7208,-0.75384],[36.72743,-0.7637],[36.74091,-0.77798],[36.72703,-0.77878],[36.72124,-0.78257],[36.72423,-0.79434],[36.72526,-0.80971],[36.74195,-0.81928],[36.74686,-0.82614],[36.75166,-0.83272],[36.75691,-0.83185],[36.76093,-0.8331],[36.77334,-0.83292],[36.77987,-0.83688],[36.78365,-0.84114],[36.78545,-0.84048],[36.78761,-0.84198],[36.78977,-0.84492],[36.79378,-0.84509],[36.80428,-0.85241],[36.80685,-0.85673],[36.81081,-0.85589],[36.81249,-0.85685],[36.81111,-0.85787],[36.81183,-0.85864],[36.81387,-0.85882],[36.81429,-0.8602],[36.81645,-0.85978],[36.81776,-0.86206],[36.8258,-0.86548],[36.82916,-0.8707],[36.83275,-0.87207],[36.83365,-0.87405],[36.83779,-0.87429],[36.83881,-0.87657],[36.84229,-0.87807],[36.84444,-0.87753],[36.85014,-0.88221],[36.86075,-0.88341],[36.86231,-0.88856],[36.86837,-0.89144],[36.87034,-0.8891],[36.87424,-0.89246],[36.87772,-0.89234],[36.8812,-0.89486],[36.88209,-0.89857],[36.88593,-0.89564],[36.88257,-0.88964],[36.8794,-0.88802],[36.87868,-0.88149],[36.88102,-0.87681],[36.88251,-0.88077],[36.88557,-0.88215],[36.88563,-0.86788],[36.88911,-0.86722],[36.89858,-0.87315],[36.90212,-0.87723],[36.90668,-0.87723],[36.90937,-0.88113],[36.91747,-0.8846],[36.92088,-0.88928],[36.92148,-0.89528],[36.92298,-0.89486]]]}},{"type":"Feature","properties":{"code":"0522","name":"Wangu","sourceName":"Wangu","constituency":"Kiharu","constituencyCode":"106","county":"Murang'a","countyCode":"021","level":"ward","source":"geoBoundaries gbOpen KEN ADM3 (IEBC-derived)","license":"geoBoundaries gbOpen (CC BY 4.0 citation requested)","classification":"official","approximate":false},"geometry":{"type":"Polygon","coordinates":[[[36.96336,-0.72729],[36.96565,-0.72955],[36.96565,-0.73195],[36.97135,-0.73111],[36.97273,-0.73243],[36.9867,-0.72901],[36.99323,-0.72919],[36.99677,-0.73261],[37.00492,-0.73662],[37.01121,-0.73644],[37.01457,-0.73309],[37.02668,-0.73543],[37.0283,-0.73435],[37.03166,-0.73531],[37.03142,-0.73369],[37.03351,-0.73339],[37.03843,-0.73417],[37.05594,-0.74172],[37.05977,-0.738],[37.06313,-0.73944],[37.06721,-0.7386],[37.07104,-0.73986],[37.0744,-0.7386],[37.08082,-0.73974],[37.08579,-0.73842],[37.08897,-0.73561],[37.08927,-0.72487],[37.08651,-0.72044],[37.08771,-0.71366],[37.09044,-0.71087],[37.08906,-0.70878],[37.0845,-0.70788],[37.08235,-0.70896],[37.0706,-0.7068],[37.0679,-0.70902],[37.06328,-0.70656],[37.05201,-0.70608],[37.04715,-0.7008],[37.03025,-0.70344],[37.02647,-0.70674],[37.02299,-0.7056],[37.02137,-0.7068],[37.01238,-0.7038],[37.00944,-0.69834],[37.00537,-0.69828],[37.00285,-0.7005],[37.00153,-0.69942],[36.99176,-0.70038],[36.99002,-0.69828],[36.98546,-0.69828],[36.97917,-0.70044],[36.96586,-0.69715],[36.95962,-0.69942],[36.95429,-0.69816],[36.95413,-0.69995],[36.95323,-0.70175],[36.95653,-0.7057],[36.95904,-0.70474],[36.9627,-0.70606],[36.96144,-0.71008],[36.96336,-0.71398],[36.96336,-0.72729]]]}},{"type":"Feature","properties":{"code":"0538","name":"Nginda","sourceName":"Nginda","constituency":"Maragwa","constituencyCode":"108","county":"Murang'a","countyCode":"021","level":"ward","source":"geoBoundaries gbOpen KEN ADM3 (IEBC-derived)","license":"geoBoundaries gbOpen (CC BY 4.0 citation requested)","classification":"official","approximate":false},"geometry":{"type":"Polygon","coordinates":[[[37.01554,-0.80379],[37.01974,-0.80625],[37.02849,-0.80493],[37.02939,-0.80193],[37.03449,-0.80199],[37.03803,-0.80415],[37.04378,-0.80241],[37.04858,-0.80397],[37.05217,-0.80193],[37.06291,-0.80517],[37.06902,-0.80283],[37.07052,-0.80936],[37.0716,-0.8093],[37.13413,-0.79054],[37.13527,-0.78658],[37.1427,-0.77795],[37.15134,-0.77081],[37.15338,-0.7656],[37.1535,-0.75795],[37.15086,-0.75771],[37.14966,-0.75615],[37.14786,-0.75675],[37.14726,-0.75999],[37.14378,-0.76371],[37.13479,-0.76731],[37.13107,-0.7685],[37.12292,-0.76731],[37.11057,-0.77222],[37.10206,-0.76761],[37.09684,-0.76677],[37.09243,-0.76746],[37.09375,-0.77669],[37.09219,-0.77753],[37.08752,-0.77645],[37.0832,-0.77345],[37.08032,-0.77537],[37.08548,-0.78508],[37.08068,-0.78568],[37.07631,-0.7831],[37.06246,-0.77993],[37.05964,-0.78286],[37.054,-0.78274],[37.04255,-0.77315],[37.03374,-0.77729],[37.02002,-0.77948],[37.01912,-0.78157],[37.01048,-0.78445],[37.01,-0.78829],[37.01662,-0.79701],[37.01548,-0.79839],[37.01554,-0.80379]]]}},{"type":"Feature","properties":{"code":"0545","name":"Ithanga","sourceName":"Ithanga","constituency":"Gatanga","constituencyCode":"110","county":"Murang'a","countyCode":"021","level":"ward","source":"geoBoundaries gbOpen KEN ADM3 (IEBC-derived)","license":"geoBoundaries gbOpen (CC BY 4.0 citation requested)","classification":"official","approximate":false},"geometry":{"type":"Polygon","coordinates":[[[37.35954,-0.98745],[37.35067,-0.98715],[37.34479,-0.97876],[37.34971,-0.97366],[37.35468,-0.97121],[37.34479,-0.95796],[37.34185,-0.96155],[37.33562,-0.96024],[37.32788,-0.95172],[37.32944,-0.94878],[37.32387,-0.93733],[37.32465,-0.93122],[37.31811,-0.9266],[37.31823,-0.92193],[37.31338,-0.92372],[37.29287,-0.93907],[37.29641,-0.9516],[37.29875,-0.95334],[37.30103,-0.95514],[37.30198,-0.95958],[37.30618,-0.96437],[37.30762,-0.96857],[37.30642,-0.97684],[37.30942,-0.98104],[37.30738,-0.99171],[37.30942,-0.99495],[37.3093,-0.99831],[37.31661,-1.00634],[37.32321,-1.01989],[37.32153,-1.0284],[37.33736,-1.01617],[37.34731,-1.01665],[37.34743,-1.02469],[37.34983,-1.03548],[37.3581,-1.04087],[37.38646,-1.02355],[37.40217,-1.04645],[37.42027,-1.03404],[37.41841,-1.03146],[37.40684,-1.01461],[37.40253,-1.01072],[37.35954,-0.98745]]]}},{"type":"Feature","properties":{"code":"0523","name":"Mugoiri","sourceName":"Mugoiri","constituency":"Kiharu","constituencyCode":"106","county":"Murang'a","countyCode":"021","level":"ward","source":"geoBoundaries gbOpen KEN ADM3 (IEBC-derived)","license":"geoBoundaries gbOpen (CC BY 4.0 citation requested)","classification":"official","approximate":false},"geometry":{"type":"Polygon","coordinates":[[[37.02002,-0.77948],[37.03374,-0.77729],[37.04255,-0.77315],[37.054,-0.78274],[37.05964,-0.78286],[37.06246,-0.77993],[37.07631,-0.7831],[37.08068,-0.78568],[37.08548,-0.78508],[37.08032,-0.77537],[37.0832,-0.77345],[37.08752,-0.77645],[37.09219,-0.77753],[37.09375,-0.77669],[37.09243,-0.76746],[37.09684,-0.76677],[37.09882,-0.76263],[37.0912,-0.7507],[37.08323,-0.75334],[37.08281,-0.74542],[37.08113,-0.74452],[37.08082,-0.73974],[37.0744,-0.7386],[37.07104,-0.73986],[37.06721,-0.7386],[37.06313,-0.73944],[37.05977,-0.738],[37.05594,-0.74172],[37.03843,-0.73417],[37.03351,-0.73339],[37.03142,-0.73369],[37.03166,-0.73531],[37.0283,-0.73435],[37.02668,-0.73543],[37.01457,-0.73309],[37.01121,-0.73644],[37.00492,-0.73662],[37.00223,-0.7455],[36.99971,-0.74682],[36.98844,-0.74442],[36.98394,-0.74058],[36.981,-0.74166],[36.97705,-0.74064],[36.97633,-0.74274],[36.97003,-0.74364],[36.96745,-0.7458],[36.96991,-0.74802],[36.96757,-0.75227],[36.96895,-0.75377],[36.96559,-0.75797],[36.96763,-0.76073],[36.96702,-0.76773],[36.97133,-0.76856],[36.97349,-0.77198],[36.98057,-0.7733],[36.99016,-0.77132],[36.99723,-0.77246],[37.00323,-0.7754],[37.00923,-0.77246],[37.02002,-0.77948]]]}},{"type":"Feature","properties":{"code":"0533","name":"Kimorori/Wempa","sourceName":"Kimorori/Wempa","constituency":"Maragwa","constituencyCode":"108","county":"Murang'a","countyCode":"021","level":"ward","source":"geoBoundaries gbOpen KEN ADM3 (IEBC-derived)","license":"geoBoundaries gbOpen (CC BY 4.0 citation requested)","classification":"official","approximate":false},"geometry":{"type":"Polygon","coordinates":[[[37.21829,-0.96665],[37.20942,-0.95472],[37.20708,-0.95364],[37.20606,-0.93535],[37.2063,-0.92954],[37.2096,-0.92294],[37.21721,-0.91857],[37.21853,-0.91569],[37.20318,-0.91245],[37.19779,-0.91449],[37.18759,-0.90838],[37.18663,-0.9031],[37.18292,-0.89926],[37.18232,-0.89405],[37.17746,-0.88901],[37.17572,-0.88385],[37.17571,-0.86924],[37.17031,-0.87422],[37.16809,-0.87877],[37.16504,-0.88069],[37.14795,-0.88591],[37.14052,-0.8913],[37.13212,-0.8934],[37.12757,-0.89694],[37.11893,-0.89952],[37.12148,-0.90815],[37.12313,-0.91409],[37.12679,-0.91846],[37.11995,-0.94316],[37.10239,-0.95779],[37.10654,-0.96575],[37.12147,-0.97972],[37.1235,-0.98494],[37.1271,-0.98823],[37.12842,-0.99525],[37.1346,-1.00322],[37.13723,-1.01024],[37.13903,-1.01108],[37.14521,-1.00592],[37.14539,-1.00082],[37.14994,-0.99405],[37.1593,-1.00022],[37.1783,-1.00154],[37.18616,-1.01024],[37.19203,-1.01209],[37.20474,-1.01006],[37.21841,-0.99914],[37.21853,-0.99759],[37.20846,-0.98643],[37.21829,-0.96665]]]}},{"type":"Feature","properties":{"code":"0547","name":"Mugumo-ini","sourceName":"Mugumo-Ini","constituency":"Gatanga","constituencyCode":"110","county":"Murang'a","countyCode":"021","level":"ward","source":"geoBoundaries gbOpen KEN ADM3 (IEBC-derived)","license":"geoBoundaries gbOpen (CC BY 4.0 citation requested)","classification":"official","approximate":false},"geometry":{"type":"Polygon","coordinates":[[[36.94738,-0.9509],[36.9515,-0.95226],[36.95384,-0.95604],[36.95557,-0.9555],[36.96439,-0.97175],[36.96763,-0.97408],[36.98201,-0.97774],[36.99179,-0.98895],[37.00576,-0.99765],[37.01595,-1.00754],[37.0208,-1.00886],[37.02326,-1.01126],[37.02392,-1.01455],[37.02698,-1.01581],[37.03154,-1.02666],[37.03489,-1.02924],[37.04532,-1.03332],[37.05564,-1.03074],[37.06061,-1.03164],[37.06409,-1.02816],[37.06715,-1.02115],[37.07764,-1.0043],[37.0786,-0.99639],[37.07698,-0.98817],[37.08969,-0.97187],[37.09333,-0.96942],[37.08998,-0.96613],[37.08458,-0.96409],[37.08038,-0.95887],[37.06767,-0.95138],[37.06414,-0.9479],[37.03552,-0.96506],[37.02731,-0.95883],[37.02523,-0.95443],[37.02487,-0.95707],[37.01941,-0.96277],[37.01755,-0.97026],[37.01593,-0.97068],[37.00922,-0.96409],[36.99975,-0.95803],[36.99789,-0.95132],[36.98856,-0.94784],[36.97807,-0.95222],[36.97633,-0.95671],[36.97442,-0.94952],[36.9686,-0.94478],[36.96464,-0.94376],[36.96165,-0.95006],[36.95595,-0.944],[36.95151,-0.94232],[36.94798,-0.93795],[36.94642,-0.94154],[36.94738,-0.9509]]]}},{"type":"Feature","properties":{"code":"0517","name":"Muguru","sourceName":"Muguru","constituency":"Kangema","constituencyCode":"104","county":"Murang'a","countyCode":"021","level":"ward","source":"geoBoundaries gbOpen KEN ADM3 (IEBC-derived)","license":"geoBoundaries gbOpen (CC BY 4.0 citation requested)","classification":"official","approximate":false},"geometry":{"type":"Polygon","coordinates":[[[36.93314,-0.67261],[36.93578,-0.67974],[36.93464,-0.68124],[36.94106,-0.6843],[36.9392,-0.69281],[36.94268,-0.69887],[36.94891,-0.70043],[36.95161,-0.69869],[36.95413,-0.69995],[36.95429,-0.69816],[36.95962,-0.69942],[36.96586,-0.69715],[36.97917,-0.70044],[36.98546,-0.69828],[36.99002,-0.69828],[36.99176,-0.70038],[37.00153,-0.69942],[37.00285,-0.7005],[37.00537,-0.69828],[37.00944,-0.69834],[37.01238,-0.7038],[37.02137,-0.7068],[37.02299,-0.7056],[37.02647,-0.70674],[37.03025,-0.70344],[37.04715,-0.7008],[37.05201,-0.70608],[37.06328,-0.70656],[37.0679,-0.70902],[37.0706,-0.7068],[37.08235,-0.70896],[37.0845,-0.70788],[37.08906,-0.70878],[37.09044,-0.71087],[37.09278,-0.70842],[37.09739,-0.7089],[37.09931,-0.71117],[37.10273,-0.70818],[37.1152,-0.71004],[37.11725,-0.70776],[37.11572,-0.70338],[37.11284,-0.70152],[37.11044,-0.70242],[37.1081,-0.7011],[37.10355,-0.69433],[37.09449,-0.69193],[37.09084,-0.68785],[37.084,-0.68743],[37.07639,-0.68156],[37.05235,-0.67922],[37.05019,-0.67646],[37.04935,-0.67718],[37.04383,-0.67412],[37.0364,-0.67508],[37.02069,-0.67418],[37.01865,-0.67538],[37.00738,-0.66495],[37.00501,-0.66048],[36.99872,-0.65916],[36.9947,-0.66075],[36.99374,-0.66402],[36.98778,-0.66345],[36.9861,-0.66762],[36.98418,-0.66846],[36.97387,-0.66882],[36.97183,-0.67002],[36.96332,-0.66966],[36.95257,-0.66386],[36.95149,-0.66553],[36.9383,-0.66961],[36.93422,-0.67333],[36.93314,-0.67261]]]}},{"type":"Feature","properties":{"code":"0537","name":"Ichagaki","sourceName":"Ichagaki","constituency":"Maragwa","constituencyCode":"108","county":"Murang'a","countyCode":"021","level":"ward","source":"geoBoundaries gbOpen KEN ADM3 (IEBC-derived)","license":"geoBoundaries gbOpen (CC BY 4.0 citation requested)","classification":"official","approximate":false},"geometry":{"type":"Polygon","coordinates":[[[37.16567,-0.74932],[37.16471,-0.74884],[37.15781,-0.74992],[37.15296,-0.74824],[37.15206,-0.7522],[37.1535,-0.75795],[37.15338,-0.7656],[37.15134,-0.77081],[37.1427,-0.77795],[37.13527,-0.78658],[37.13413,-0.79054],[37.0716,-0.8093],[37.07052,-0.80936],[37.06902,-0.80283],[37.06291,-0.80517],[37.05217,-0.80193],[37.04858,-0.80397],[37.04378,-0.80241],[37.03803,-0.80415],[37.03449,-0.80199],[37.02939,-0.80193],[37.02849,-0.80493],[37.01974,-0.80625],[37.01974,-0.8078],[37.02298,-0.80942],[37.03155,-0.80804],[37.05157,-0.82099],[37.05793,-0.81973],[37.05913,-0.82681],[37.06075,-0.82729],[37.07304,-0.82513],[37.07544,-0.82699],[37.07999,-0.82627],[37.08947,-0.83071],[37.09792,-0.83041],[37.10367,-0.82897],[37.11033,-0.82285],[37.11543,-0.82261],[37.12634,-0.82699],[37.13611,-0.82519],[37.13701,-0.82585],[37.13599,-0.83334],[37.14678,-0.83982],[37.14948,-0.84294],[37.16051,-0.84623],[37.16219,-0.84551],[37.16507,-0.8373],[37.16896,-0.83137],[37.16968,-0.82633],[37.16884,-0.82111],[37.17016,-0.81662],[37.16788,-0.81458],[37.16992,-0.80984],[37.16627,-0.80541],[37.16465,-0.80217],[37.16489,-0.78029],[37.16369,-0.77711],[37.15721,-0.77033],[37.16369,-0.76068],[37.16651,-0.76182],[37.16465,-0.75061],[37.16567,-0.74932]]]}},{"type":"Feature","properties":{"code":"0519","name":"Gitugi","sourceName":"Gitugi","constituency":"Mathioya","constituencyCode":"105","county":"Murang'a","countyCode":"021","level":"ward","source":"geoBoundaries gbOpen KEN ADM3 (IEBC-derived)","license":"geoBoundaries gbOpen (CC BY 4.0 citation requested)","classification":"official","approximate":false},"geometry":{"type":"Polygon","coordinates":[[[36.95257,-0.66386],[36.96332,-0.66966],[36.97183,-0.67002],[36.97387,-0.66882],[36.98418,-0.66846],[36.9861,-0.66762],[36.98778,-0.66345],[36.99374,-0.66402],[36.9947,-0.66075],[36.99872,-0.65916],[37.00501,-0.66048],[37.00738,-0.66495],[37.01865,-0.67538],[37.02069,-0.67418],[37.0364,-0.67508],[37.04383,-0.67412],[37.04935,-0.67718],[37.05019,-0.67646],[37.05235,-0.67922],[37.07639,-0.68156],[37.084,-0.68743],[37.09084,-0.68785],[37.09449,-0.69193],[37.10355,-0.69433],[37.1081,-0.7011],[37.11044,-0.70242],[37.11284,-0.70152],[37.11572,-0.70338],[37.11725,-0.70776],[37.12231,-0.70911],[37.12318,-0.70524],[37.12183,-0.70125],[37.11599,-0.69331],[37.11494,-0.69418],[37.11401,-0.69313],[37.11437,-0.68974],[37.11227,-0.68719],[37.10879,-0.68614],[37.10574,-0.68174],[37.09611,-0.6791],[37.098,-0.67727],[37.09264,-0.6737],[37.09138,-0.66981],[37.08628,-0.67286],[37.08448,-0.66897],[37.07681,-0.66873],[37.07636,-0.66969],[37.07036,-0.66834],[37.06958,-0.66468],[37.06137,-0.65779],[37.06038,-0.65545],[37.05418,-0.65482],[37.05346,-0.65152],[37.05043,-0.64885],[37.03733,-0.64544],[37.0307,-0.64876],[37.0272,-0.64744],[37.02645,-0.64394],[37.01726,-0.6405],[37.0127,-0.64134],[37.00994,-0.64374],[37.00779,-0.64254],[37.00239,-0.64278],[36.99064,-0.63415],[36.98644,-0.63175],[36.9844,-0.63211],[36.98105,-0.62947],[36.97517,-0.63043],[36.9693,-0.62791],[36.96342,-0.62815],[36.96174,-0.63031],[36.95898,-0.62719],[36.95431,-0.63043],[36.944,-0.62767],[36.94292,-0.62875],[36.94076,-0.62779],[36.93992,-0.62911],[36.93764,-0.62731],[36.9362,-0.62851],[36.92949,-0.62863],[36.92217,-0.63283],[36.92037,-0.63235],[36.90982,-0.63619],[36.89891,-0.63019],[36.89352,-0.62971],[36.88488,-0.62432],[36.88308,-0.63451],[36.89046,-0.63616],[36.89358,-0.64059],[36.90149,-0.64515],[36.90509,-0.64455],[36.91696,-0.64887],[36.91816,-0.64755],[36.92391,-0.64779],[36.92571,-0.64971],[36.93015,-0.65043],[36.9407,-0.64959],[36.94681,-0.65187],[36.94885,-0.65115],[36.95269,-0.65666],[36.95305,-0.65882],[36.95065,-0.66158],[36.95257,-0.66386]]]}},{"type":"Feature","properties":{"code":"0540","name":"Muruka","sourceName":"Muruka","constituency":"Kandara","constituencyCode":"109","county":"Murang'a","countyCode":"021","level":"ward","source":"geoBoundaries gbOpen KEN ADM3 (IEBC-derived)","license":"geoBoundaries gbOpen (CC BY 4.0 citation requested)","classification":"official","approximate":false},"geometry":{"type":"Polygon","coordinates":[[[37.00676,-0.90455],[37.00922,-0.90923],[37.02241,-0.91726],[37.02906,-0.92488],[37.04357,-0.93177],[37.04975,-0.93771],[37.05958,-0.9419],[37.06024,-0.9446],[37.06414,-0.9479],[37.06767,-0.95138],[37.08038,-0.95887],[37.08458,-0.96409],[37.08998,-0.96613],[37.09333,-0.96942],[37.10239,-0.95779],[37.08992,-0.94388],[37.08146,-0.92824],[37.07439,-0.91894],[37.06,-0.91121],[37.03695,-0.89115],[37.03116,-0.88921],[37.03182,-0.89712],[37.0353,-0.89928],[37.03392,-0.90132],[37.03092,-0.90126],[37.02876,-0.89844],[37.02235,-0.89532],[37.01551,-0.89442],[37.00676,-0.90455]]]}},{"type":"Feature","properties":{"code":"0527","name":"Gaturi","sourceName":"Gaturi","constituency":"Kiharu","constituencyCode":"106","county":"Murang'a","countyCode":"021","level":"ward","source":"geoBoundaries gbOpen KEN ADM3 (IEBC-derived)","license":"geoBoundaries gbOpen (CC BY 4.0 citation requested)","classification":"official","approximate":false},"geometry":{"type":"Polygon","coordinates":[[[37.06092,-0.61272],[37.05888,-0.61396],[37.0578,-0.61708],[37.05127,-0.62097],[37.05133,-0.62337],[37.04953,-0.62541],[37.04299,-0.62014],[37.03586,-0.62247],[37.0346,-0.62397],[37.03634,-0.62451],[37.03568,-0.62763],[37.03088,-0.62619],[37.02831,-0.62751],[37.01931,-0.62529],[37.01584,-0.62781],[37.01462,-0.63091],[37.01678,-0.63199],[37.01618,-0.63691],[37.01822,-0.63871],[37.01726,-0.6405],[37.02645,-0.64394],[37.0272,-0.64744],[37.0307,-0.64876],[37.03733,-0.64544],[37.05043,-0.64885],[37.05346,-0.65152],[37.05418,-0.65482],[37.06038,-0.65545],[37.06137,-0.65779],[37.06958,-0.66468],[37.07036,-0.66834],[37.07636,-0.66969],[37.07681,-0.66873],[37.08448,-0.66897],[37.08628,-0.67286],[37.09138,-0.66981],[37.09264,-0.6737],[37.098,-0.67727],[37.09611,-0.6791],[37.10574,-0.68174],[37.10879,-0.68614],[37.11227,-0.68719],[37.11437,-0.68974],[37.11401,-0.69313],[37.11494,-0.69418],[37.11599,-0.69331],[37.12183,-0.70125],[37.12318,-0.70524],[37.12231,-0.70911],[37.12822,-0.71198],[37.13146,-0.71552],[37.13637,-0.71969],[37.1373,-0.71357],[37.13928,-0.71417],[37.14324,-0.71001],[37.14725,-0.70899],[37.15777,-0.71117],[37.16047,-0.70884],[37.16329,-0.71027],[37.16425,-0.71399],[37.16857,-0.71645],[37.17678,-0.71525],[37.1775,-0.71327],[37.18272,-0.71303],[37.18032,-0.70626],[37.18433,-0.69876],[37.19219,-0.67167],[37.19579,-0.67008],[37.19878,-0.67304],[37.20262,-0.67367],[37.20097,-0.66518],[37.18062,-0.66749],[37.17756,-0.65636],[37.17073,-0.64949],[37.16832,-0.63703],[37.15353,-0.6416],[37.14171,-0.63956],[37.12019,-0.6469],[37.10319,-0.63866],[37.09937,-0.6288],[37.0866,-0.62458],[37.07815,-0.61754],[37.06092,-0.61272]]]}},{"type":"Feature","properties":{"code":"0526","name":"Murarandia","sourceName":"Murarandia","constituency":"Kiharu","constituencyCode":"106","county":"Murang'a","countyCode":"021","level":"ward","source":"geoBoundaries gbOpen KEN ADM3 (IEBC-derived)","license":"geoBoundaries gbOpen (CC BY 4.0 citation requested)","classification":"official","approximate":false},"geometry":{"type":"Polygon","coordinates":[[[36.87247,-0.73334],[36.87379,-0.73634],[36.87631,-0.73742],[36.87667,-0.73946],[36.88338,-0.74479],[36.88398,-0.74677],[36.891,-0.74935],[36.89519,-0.75337],[36.90419,-0.75552],[36.91174,-0.75421],[36.91744,-0.75846],[36.91876,-0.75738],[36.9199,-0.75846],[36.92163,-0.75738],[36.94079,-0.7584],[36.94711,-0.76119],[36.95413,-0.76794],[36.95509,-0.76701],[36.96105,-0.76898],[36.96702,-0.76773],[36.96763,-0.76073],[36.96559,-0.75797],[36.96895,-0.75377],[36.96757,-0.75227],[36.96991,-0.74802],[36.96745,-0.7458],[36.97003,-0.74364],[36.97633,-0.74274],[36.97705,-0.74064],[36.981,-0.74166],[36.98394,-0.74058],[36.98844,-0.74442],[36.99971,-0.74682],[37.00223,-0.7455],[37.00492,-0.73662],[36.99677,-0.73261],[36.99323,-0.72919],[36.9867,-0.72901],[36.97273,-0.73243],[36.97135,-0.73111],[36.96565,-0.73195],[36.96565,-0.72955],[36.96336,-0.72729],[36.95581,-0.72501],[36.94975,-0.71572],[36.94729,-0.71446],[36.93428,-0.7141],[36.93135,-0.71116],[36.92571,-0.70984],[36.92391,-0.71128],[36.92205,-0.71086],[36.91738,-0.7072],[36.91606,-0.7042],[36.91174,-0.70576],[36.90778,-0.70241],[36.90653,-0.70247],[36.90455,-0.7066],[36.89771,-0.70768],[36.88848,-0.70139],[36.87907,-0.70462],[36.87451,-0.70343],[36.87187,-0.7042],[36.86989,-0.70936],[36.86726,-0.71176],[36.86684,-0.71662],[36.86911,-0.72051],[36.8684,-0.72255],[36.87247,-0.73334]]]}},{"type":"Feature","properties":{"code":"0536","name":"Kamahuha","sourceName":"Kamahuha","constituency":"Maragwa","constituencyCode":"108","county":"Murang'a","countyCode":"021","level":"ward","source":"geoBoundaries gbOpen KEN ADM3 (IEBC-derived)","license":"geoBoundaries gbOpen (CC BY 4.0 citation requested)","classification":"official","approximate":false},"geometry":{"type":"Polygon","coordinates":[[[37.12409,-0.88765],[37.12289,-0.8913],[37.11851,-0.8955],[37.11893,-0.89952],[37.12757,-0.89694],[37.13212,-0.8934],[37.14052,-0.8913],[37.14795,-0.88591],[37.16504,-0.88069],[37.16809,-0.87877],[37.17031,-0.87422],[37.17571,-0.86924],[37.17973,-0.85905],[37.17835,-0.85665],[37.17919,-0.85383],[37.1814,-0.85257],[37.18584,-0.85365],[37.18806,-0.85179],[37.19142,-0.85245],[37.19585,-0.84574],[37.20062,-0.84408],[37.20619,-0.83838],[37.20847,-0.83083],[37.20697,-0.82681],[37.20919,-0.82267],[37.2047,-0.81506],[37.20601,-0.8114],[37.20122,-0.81146],[37.19618,-0.80672],[37.19594,-0.79863],[37.19348,-0.7936],[37.18089,-0.7834],[37.17214,-0.77831],[37.16998,-0.78694],[37.171,-0.79006],[37.16776,-0.79485],[37.16818,-0.79821],[37.16986,-0.79923],[37.16627,-0.80541],[37.16992,-0.80984],[37.16788,-0.81458],[37.17016,-0.81662],[37.16884,-0.82111],[37.16968,-0.82633],[37.16896,-0.83137],[37.16507,-0.8373],[37.16219,-0.84551],[37.16051,-0.84623],[37.14948,-0.84294],[37.14678,-0.83982],[37.13599,-0.83334],[37.14007,-0.85194],[37.14055,-0.8586],[37.13905,-0.86424],[37.14028,-0.87338],[37.13944,-0.8756],[37.12409,-0.88765]]]}},{"type":"Feature","properties":{"code":"0529","name":"Muthithi","sourceName":"Muthithi","constituency":"Kigumo","constituencyCode":"107","county":"Murang'a","countyCode":"021","level":"ward","source":"geoBoundaries gbOpen KEN ADM3 (IEBC-derived)","license":"geoBoundaries gbOpen (CC BY 4.0 citation requested)","classification":"official","approximate":false},"geometry":{"type":"Polygon","coordinates":[[[37.13905,-0.86424],[37.14055,-0.8586],[37.14007,-0.85194],[37.13599,-0.83334],[37.13701,-0.82585],[37.13611,-0.82519],[37.12634,-0.82699],[37.11543,-0.82261],[37.11033,-0.82285],[37.10367,-0.82897],[37.09792,-0.83041],[37.08947,-0.83071],[37.07999,-0.82627],[37.07544,-0.82699],[37.07304,-0.82513],[37.06075,-0.82729],[37.05913,-0.82681],[37.05793,-0.81973],[37.05157,-0.82099],[37.03155,-0.80804],[37.02298,-0.80942],[37.01974,-0.8078],[37.01974,-0.80625],[37.01554,-0.80379],[37.01326,-0.81453],[37.02208,-0.81597],[37.02921,-0.82059],[37.0252,-0.82838],[37.0234,-0.83618],[37.03287,-0.83126],[37.04276,-0.83756],[37.05283,-0.83666],[37.06261,-0.83774],[37.06776,-0.84037],[37.06938,-0.84277],[37.0767,-0.84307],[37.08395,-0.84625],[37.0903,-0.84541],[37.09162,-0.85284],[37.09882,-0.855],[37.10002,-0.85842],[37.10266,-0.86034],[37.10685,-0.8613],[37.11195,-0.86016],[37.11578,-0.86304],[37.1189,-0.86352],[37.12364,-0.86214],[37.13905,-0.86424]]]}},{"type":"Feature","properties":{"code":"0531","name":"Kangari","sourceName":"Kangari","constituency":"Kigumo","constituencyCode":"107","county":"Murang'a","countyCode":"021","level":"ward","source":"geoBoundaries gbOpen KEN ADM3 (IEBC-derived)","license":"geoBoundaries gbOpen (CC BY 4.0 citation requested)","classification":"official","approximate":false},"geometry":{"type":"Polygon","coordinates":[[[36.95338,-0.78421],[36.95194,-0.78289],[36.9499,-0.78385],[36.93959,-0.78157],[36.92892,-0.78301],[36.92796,-0.78193],[36.92568,-0.78325],[36.92004,-0.7793],[36.91417,-0.77726],[36.91033,-0.78169],[36.89966,-0.78181],[36.8957,-0.78589],[36.89438,-0.78265],[36.89199,-0.78301],[36.88287,-0.7787],[36.88048,-0.77954],[36.8746,-0.7733],[36.86992,-0.77234],[36.86465,-0.77582],[36.86369,-0.77378],[36.86177,-0.77462],[36.85805,-0.7709],[36.85086,-0.76994],[36.84906,-0.76826],[36.84414,-0.7691],[36.83875,-0.76731],[36.83275,-0.76743],[36.8282,-0.76383],[36.82316,-0.76239],[36.8192,-0.75759],[36.81477,-0.75627],[36.81069,-0.7504],[36.80613,-0.74992],[36.80374,-0.74632],[36.80574,-0.73835],[36.80454,-0.73499],[36.79687,-0.73187],[36.7832,-0.72084],[36.77745,-0.71892],[36.77313,-0.71077],[36.77049,-0.70957],[36.76354,-0.70094],[36.75442,-0.69902],[36.74171,-0.67959],[36.72972,-0.67839],[36.72277,-0.67504],[36.71605,-0.67096],[36.71003,-0.66332],[36.70451,-0.69049],[36.71201,-0.70136],[36.72771,-0.70495],[36.73599,-0.70939],[36.73815,-0.71203],[36.74019,-0.71191],[36.7403,-0.71431],[36.74306,-0.71659],[36.74342,-0.72462],[36.74642,-0.72989],[36.74786,-0.74225],[36.75733,-0.75436],[36.76884,-0.76359],[36.7728,-0.77006],[36.78191,-0.77642],[36.79103,-0.77882],[36.79318,-0.78086],[36.79954,-0.79165],[36.80158,-0.79141],[36.80338,-0.79476],[36.80733,-0.7974],[36.81249,-0.80747],[36.818,-0.80951],[36.81884,-0.81191],[36.82196,-0.81335],[36.82952,-0.81443],[36.83083,-0.81347],[36.83383,-0.81683],[36.83515,-0.81563],[36.83791,-0.81791],[36.83923,-0.81695],[36.84067,-0.8203],[36.84438,-0.8233],[36.84918,-0.82006],[36.85086,-0.82126],[36.85206,-0.81994],[36.85673,-0.82174],[36.86249,-0.82138],[36.85482,-0.80556],[36.85793,-0.80436],[36.85817,-0.8016],[36.86369,-0.80376],[36.86513,-0.80759],[36.86872,-0.80807],[36.86944,-0.798],[36.87388,-0.79668],[36.8752,-0.7986],[36.87868,-0.79632],[36.88191,-0.79776],[36.88899,-0.79357],[36.89774,-0.79668],[36.90014,-0.8016],[36.91129,-0.80604],[36.91369,-0.80508],[36.91789,-0.80699],[36.91993,-0.80616],[36.92748,-0.80831],[36.93491,-0.80424],[36.94067,-0.80424],[36.94594,-0.8064],[36.94738,-0.80556],[36.95182,-0.78601],[36.95338,-0.78421]]]}}]}